CSS (TIANHE)            
1 48274U 21035A   24206.09514437  .00019806  00000+0  25095-3 0  9990
2 48274  41.4680 217.7327 0001893 281.3863  78.6762 15.58995545184871
ISS (NAUKA)             
1 49044U 21066A   24205.82569013  .00018444  00000+0  32760-3 0  9994
2 49044  51.6386 133.8275 0010091  99.9611 260.2517 15.50197647170137
FREGAT DEB              
1 49271U 11037PF  24205.38733986  .00022803  00000+0  44051-1 0  9994
2 49271  51.6712 243.7415 0996928 204.9574 149.9742 12.19577529139611
CSS (WENTIAN)           
1 53239U 22085A   24205.19828886  .00020243  00000+0  25641-3 0  9993
2 53239  41.4650 223.1780 0000592 272.1658  87.9112 15.58992763183379
CSS (MENGTIAN)          
1 54216U 22143A   24205.19828886  .00020243  00000+0  25641-3 0  9994
2 54216  41.4650 223.1780 0000592 272.1658  87.9112 15.58992763 98055
TIANZHOU-7              
1 58811U 24013A   24205.19828886  .00020243  00000+0  25641-3 0  9997
2 58811  41.4650 223.1780 0000592 272.1658  87.9112 15.58992763183370
PROGRESS-MS 26          
1 58961U 24029A   24205.82569013  .00018444  00000+0  32760-3 0  9994
2 58961  51.6386 133.8275 0010091  99.9611 260.2517 15.50197647 24582
CREW DRAGON 8           
1 59097U 24042A   24205.82569013  .00018444  00000+0  32760-3 0  9990
2 59097  51.6386 133.8275 0010091  99.9611 260.2517 15.50197647 21782
SOYUZ-MS 25             
1 59294U 24055A   24205.82569013  .00018444  00000+0  32760-3 0  9993
2 59294  51.6386 133.8275 0010091  99.9611 260.2517 15.50197647 18787
MICROORBITER-1          
1 59483U 98067WF  24206.03781992  .00301003  00000+0  15947-2 0  9996
2 59483  51.6281 123.1932 0007339 123.0278 237.1429 15.79110296 16275
CURTIS                  
1 59507U 98067WG  24205.91012087  .00154935  00000+0  12301-2 0  9992
2 59507  51.6294 126.1080 0006558 111.9241 248.2454 15.70227829 16230
KASHIWA                 
1 59508U 98067WH  24205.98956977  .00447709  00000+0  17319-2 0  9993
2 59508  51.6245 122.0937 0007476 136.4287 223.7309 15.85472730 16297
1998-067WJ              
1 59559U 98067WJ  24206.18112474  .00145517  00000+0  12396-2 0  9990
2 59559  51.6334 125.6918 0005600  90.4528 269.7110 15.68563357 15133
1998-067WK              
1 59560U 98067WK  24205.96674407  .00867587  34329-3  21111-2 0  9994
2 59560  51.6226 121.1797 0005652 156.6141 203.5125 15.95655990 15096
1998-067WL              
1 59561U 98067WL  24206.05080087  .00059010  00000+0  73721-3 0  9995
2 59561  51.6344 129.3295 0004797  86.1939 273.9602 15.59254195 15040
BURSTCUBE               
1 59562U 98067WM  24206.17954939  .00155111  00000+0  13082-2 0  9997
2 59562  51.6339 125.6853 0006949 111.9737 248.1998 15.68762608 15111
SNOOPI                  
1 59563U 98067WN  24205.80998416  .00126628  00000+0  12081-2 0  9994
2 59563  51.6345 128.4762 0006310 109.7115 250.4561 15.65832574 15047
SHENZHOU-18 (SZ-18)     
1 59591U 24078A   24205.19828886  .00020243  00000+0  25641-3 0  9994
2 59591  41.4650 223.1780 0000592 272.1658  87.9112 15.58992763 13244
1998-067WP              
1 59596U 98067WP  24206.17381861  .00214815  00000+0  14146-2 0  9991
2 59596  51.6311 124.1253 0006146 105.1309 255.0371 15.74447065 15166
1998-067WQ              
1 59597U 98067WQ  24205.91312341  .00218936  00000+0  14325-2 0  9997
2 59597  51.6350 125.4080 0006365 101.5646 258.6068 15.74581639 15099
SZ-17 MODULE            
1 59624U 23164C   24205.48742950  .00048052  00000+0  41397-3 0  9999
2 59624  41.4747 220.1277 0006632 158.6534 201.4585 15.68420261 13234
PROGRESS-MS 27          
1 59913U 24103A   24205.82569013  .00018444  00000+0  32760-3 0  9995
2 59913  51.6386 133.8275 0010091  99.9611 260.2517 15.50197647  8346
STARLINER CFT-1         
1 59968U 24109A   24205.82569013  .00018444  00000+0  32760-3 0  9991
2 59968  51.6386 133.8275 0010091  99.9611 260.2517 15.50197647  7288
